CCSDS_OMM_VERS = 2.0
CREATION_DATE  = 
ORIGINATOR     = 

OBJECT_NAME    = SL-4 R/B
OBJECT_ID      = 2014-021B
CENTER_NAME    = EARTH
REF_FRAME      = TEME
TIME_SYSTEM    = UTC
MEAN_ELEMENT_THEORY = SGP/SGP4

EPOCH          = 2026-01-05T03:40:30.951264
MEAN_MOTION    = 15.37306842
ECCENTRICITY   = .00998963
INCLINATION    = 51.6085
RA_OF_ASC_NODE = 286.7609
ARG_OF_PERICENTER = 230.9546
MEAN_ANOMALY   = 128.2515

EPHEMERIS_TYPE = 0
CLASSIFICATION_TYPE = U
NORAD_CAT_ID   = 39679
ELEMENT_SET_NO = 999
REV_AT_EPOCH   = 64649
BSTAR          = .27949765E-3
MEAN_MOTION_DOT = .11865E-3
MEAN_MOTION_DDOT = 0

CCSDS_OMM_VERS = 2.0
CREATION_DATE  = 
ORIGINATOR     = 

OBJECT_NAME    = ALOS-2
OBJECT_ID      = 2014-029A
CENTER_NAME    = EARTH
REF_FRAME      = TEME
TIME_SYSTEM    = UTC
MEAN_ELEMENT_THEORY = SGP/SGP4

EPOCH          = 2026-01-05T08:19:33.964032
MEAN_MOTION    = 14.79473600
ECCENTRICITY   = .0001368
INCLINATION    = 97.9219
RA_OF_ASC_NODE = 104.8563
ARG_OF_PERICENTER = 105.4272
MEAN_ANOMALY   = 254.7090

EPHEMERIS_TYPE = 0
CLASSIFICATION_TYPE = U
NORAD_CAT_ID   = 39766
ELEMENT_SET_NO = 999
REV_AT_EPOCH   = 62750
BSTAR          = .57804E-3
MEAN_MOTION_DOT = .4268E-4
MEAN_MOTION_DDOT = 0

CCSDS_OMM_VERS = 2.0
CREATION_DATE  = 
ORIGINATOR     = 

OBJECT_NAME    = YAOGAN-29
OBJECT_ID      = 2015-069A
CENTER_NAME    = EARTH
REF_FRAME      = TEME
TIME_SYSTEM    = UTC
MEAN_ELEMENT_THEORY = SGP/SGP4

EPOCH          = 2026-01-05T12:05:38.344128
MEAN_MOTION    = 14.82917757
ECCENTRICITY   = .0001752
INCLINATION    = 98.0195
RA_OF_ASC_NODE = 33.7498
ARG_OF_PERICENTER = 142.5417
MEAN_ANOMALY   = 217.5919

EPHEMERIS_TYPE = 0
CLASSIFICATION_TYPE = U
NORAD_CAT_ID   = 41038
ELEMENT_SET_NO = 999
REV_AT_EPOCH   = 54651
BSTAR          = .19507E-3
MEAN_MOTION_DOT = .1528E-4
MEAN_MOTION_DDOT = 0

CCSDS_OMM_VERS = 2.0
CREATION_DATE  = 
ORIGINATOR     = 

OBJECT_NAME    = ASTRO-H (HITOMI)
OBJECT_ID      = 2016-012A
CENTER_NAME    = EARTH
REF_FRAME      = TEME
TIME_SYSTEM    = UTC
MEAN_ELEMENT_THEORY = SGP/SGP4

EPOCH          = 2026-01-05T11:54:23.851296
MEAN_MOTION    = 15.09541816
ECCENTRICITY   = .0009564
INCLINATION    = 31.0011
RA_OF_ASC_NODE = 44.1998
ARG_OF_PERICENTER = 57.7550
MEAN_ANOMALY   = 302.4014

EPHEMERIS_TYPE = 0
CLASSIFICATION_TYPE = U
NORAD_CAT_ID   = 41337
ELEMENT_SET_NO = 999
REV_AT_EPOCH   = 54267
BSTAR          = .24518E-3
MEAN_MOTION_DOT = .4128E-4
MEAN_MOTION_DDOT = 0

CCSDS_OMM_VERS = 2.0
CREATION_DATE  = 
ORIGINATOR     = 

OBJECT_NAME    = HXMT (HUIYAN)
OBJECT_ID      = 2017-034A
CENTER_NAME    = EARTH
REF_FRAME      = TEME
TIME_SYSTEM    = UTC
MEAN_ELEMENT_THEORY = SGP/SGP4

EPOCH          = 2026-01-05T10:30:38.746944
MEAN_MOTION    = 15.16587088
ECCENTRICITY   = .0032627
INCLINATION    = 43.0154
RA_OF_ASC_NODE = 8.0936
ARG_OF_PERICENTER = 197.0802
MEAN_ANOMALY   = 162.8950

EPHEMERIS_TYPE = 0
CLASSIFICATION_TYPE = U
NORAD_CAT_ID   = 42758
ELEMENT_SET_NO = 999
REV_AT_EPOCH   = 47293
BSTAR          = .38605E-3
MEAN_MOTION_DOT = .7547E-4
MEAN_MOTION_DDOT = 0

CCSDS_OMM_VERS = 2.0
CREATION_DATE  = 
ORIGINATOR     = 

OBJECT_NAME    = CZ-2C R/B
OBJECT_ID      = 2018-054D
CENTER_NAME    = EARTH
REF_FRAME      = TEME
TIME_SYSTEM    = UTC
MEAN_ELEMENT_THEORY = SGP/SGP4

EPOCH          = 2026-01-05T09:54:54.500256
MEAN_MOTION    = 15.80107087
ECCENTRICITY   = .0011379
INCLINATION    = 35.1336
RA_OF_ASC_NODE = 19.7121
ARG_OF_PERICENTER = 22.3331
MEAN_ANOMALY   = 337.7898

EPHEMERIS_TYPE = 0
CLASSIFICATION_TYPE = U
NORAD_CAT_ID   = 43521
ELEMENT_SET_NO = 999
REV_AT_EPOCH   = 41879
BSTAR          = .83228E-3
MEAN_MOTION_DOT = .165347E-2
MEAN_MOTION_DDOT = 0

CCSDS_OMM_VERS = 2.0
CREATION_DATE  = 
ORIGINATOR     = 

OBJECT_NAME    = H-2A R/B
OBJECT_ID      = 2018-084L
CENTER_NAME    = EARTH
REF_FRAME      = TEME
TIME_SYSTEM    = UTC
MEAN_ELEMENT_THEORY = SGP/SGP4

EPOCH          = 2026-01-05T12:09:55.904256
MEAN_MOTION    = 15.38442629
ECCENTRICITY   = .0025869
INCLINATION    = 98.8757
RA_OF_ASC_NODE = 209.5320
ARG_OF_PERICENTER = 242.6507
MEAN_ANOMALY   = 117.2100

EPHEMERIS_TYPE = 0
CLASSIFICATION_TYPE = U
NORAD_CAT_ID   = 43682
ELEMENT_SET_NO = 999
REV_AT_EPOCH   = 39605
BSTAR          = .67097E-3
MEAN_MOTION_DOT = .25684E-3
MEAN_MOTION_DDOT = 0

CCSDS_OMM_VERS = 2.0
CREATION_DATE  = 
ORIGINATOR     = 

OBJECT_NAME    = SAOCOM 1B
OBJECT_ID      = 2020-059A
CENTER_NAME    = EARTH
REF_FRAME      = TEME
TIME_SYSTEM    = UTC
MEAN_ELEMENT_THEORY = SGP/SGP4

EPOCH          = 2026-01-05T12:49:27.850368
MEAN_MOTION    = 14.82171053
ECCENTRICITY   = .0001402
INCLINATION    = 97.8835
RA_OF_ASC_NODE = 193.7093
ARG_OF_PERICENTER = 86.0044
MEAN_ANOMALY   = 274.1329

EPHEMERIS_TYPE = 0
CLASSIFICATION_TYPE = U
NORAD_CAT_ID   = 46265
ELEMENT_SET_NO = 999
REV_AT_EPOCH   = 28939
BSTAR          = .11827E-3
MEAN_MOTION_DOT = .89E-5
MEAN_MOTION_DDOT = 0

CCSDS_OMM_VERS = 2.0
CREATION_DATE  = 
ORIGINATOR     = 

OBJECT_NAME    = CSS (TIANHE)
OBJECT_ID      = 2021-035A
CENTER_NAME    = EARTH
REF_FRAME      = TEME
TIME_SYSTEM    = UTC
MEAN_ELEMENT_THEORY = SGP/SGP4

EPOCH          = 2026-01-05T06:41:20.004864
MEAN_MOTION    = 15.60193416
ECCENTRICITY   = .0010819
INCLINATION    = 41.4649
RA_OF_ASC_NODE = 233.6974
ARG_OF_PERICENTER = 223.3852
MEAN_ANOMALY   = 136.6136

EPHEMERIS_TYPE = 0
CLASSIFICATION_TYPE = U
NORAD_CAT_ID   = 48274
ELEMENT_SET_NO = 999
REV_AT_EPOCH   = 26770
BSTAR          = .19983E-3
MEAN_MOTION_DOT = .16482E-3
MEAN_MOTION_DDOT = 0

CCSDS_OMM_VERS = 2.0
CREATION_DATE  = 
ORIGINATOR     = 

OBJECT_NAME    = COSMOS 2550
OBJECT_ID      = 2021-056A
CENTER_NAME    = EARTH
REF_FRAME      = TEME
TIME_SYSTEM    = UTC
MEAN_ELEMENT_THEORY = SGP/SGP4

EPOCH          = 2026-01-05T04:49:07.112928
MEAN_MOTION    = 15.33827770
ECCENTRICITY   = .00083753
INCLINATION    = 67.1439
RA_OF_ASC_NODE = 232.9711
ARG_OF_PERICENTER = 269.9446
MEAN_ANOMALY   = 90.0749

EPHEMERIS_TYPE = 0
CLASSIFICATION_TYPE = U
NORAD_CAT_ID   = 48865
ELEMENT_SET_NO = 999
REV_AT_EPOCH   = 25372
BSTAR          = .562391E-6
MEAN_MOTION_DOT = -.173E-5
MEAN_MOTION_DDOT = 0

CCSDS_OMM_VERS = 2.0
CREATION_DATE  = 
ORIGINATOR     = 

OBJECT_NAME    = CZ-2C R/B
OBJECT_ID      = 2022-058K
CENTER_NAME    = EARTH
REF_FRAME      = TEME
TIME_SYSTEM    = UTC
MEAN_ELEMENT_THEORY = SGP/SGP4

EPOCH          = 2026-01-05T03:46:37.104960
MEAN_MOTION    = 15.49960846
ECCENTRICITY   = .00436797
INCLINATION    = 50.1907
RA_OF_ASC_NODE = 284.0108
ARG_OF_PERICENTER = 294.4183
MEAN_ANOMALY   = 65.2231

EPHEMERIS_TYPE = 0
CLASSIFICATION_TYPE = U
NORAD_CAT_ID   = 52794
ELEMENT_SET_NO = 999
REV_AT_EPOCH   = 20026
BSTAR          = .53556591E-3
MEAN_MOTION_DOT = .31422E-3
MEAN_MOTION_DDOT = 0

