SL-4 R/B                
1 39679U 14021B   26005.15313601  .00011865  00000+0  27950-3 0  9991
2 39679  51.6085 286.7609 0099896 230.9546 128.2515 15.37306842646491
ALOS-2                  
1 39766U 14029A   26005.34692088  .00004268  00000+0  57804-3 0  9996
2 39766  97.9219 104.8563 0001368 105.4272 254.7090 14.79473600627504
YAOGAN-29               
1 41038U 15069A   26005.50391602  .00001528  00000+0  19507-3 0  9996
2 41038  98.0195  33.7498 0001752 142.5417 217.5919 14.82917757546519
ASTRO-H (HITOMI)        
1 41337U 16012A   26005.49610939  .00004128  00000+0  24518-3 0  9999
2 41337  31.0011  44.1998 0009564  57.7550 302.4014 15.09541816542672
HXMT (HUIYAN)           
1 42758U 17034A   26005.43794846  .00007547  00000+0  38605-3 0  9996
2 42758  43.0154   8.0936 0032627 197.0802 162.8950 15.16587088472933
CZ-2C R/B               
1 43521U 18054D   26005.41313079  .00165347  00000+0  83228-3 0  9995
2 43521  35.1336  19.7121 0011379  22.3331 337.7898 15.80107087418795
H-2A R/B                
1 43682U 18084L   26005.50689704  .00025684  00000+0  67097-3 0  9992
2 43682  98.8757 209.5320 0025869 242.6507 117.2100 15.38442629396055
SAOCOM 1B               
1 46265U 20059A   26005.53435012  .00000890  00000+0  11827-3 0  9993
2 46265  97.8835 193.7093 0001402  86.0044 274.1329 14.82171053289397
CSS (TIANHE)            
1 48274U 21035A   26005.27870376  .00016482  00000+0  19983-3 0  9992
2 48274  41.4649 233.6974 0010819 223.3852 136.6136 15.60193416267707
COSMOS 2550             
1 48865U 21056A   26005.20077677 -.00000173  00000+0  56239-6 0  9996
2 48865  67.1439 232.9711 0008375 269.9446  90.0749 15.33827770253722
CZ-2C R/B               
1 52794U 22058K   26005.15737390  .00031422  00000+0  53557-3 0  9991
2 52794  50.1907 284.0108 0043679 294.4183  65.2231 15.49960846200265
